[{"OBJECT_NAME":"STARLINK-4349","OBJECT_ID":"2022-077B","EPOCH":"2026-03-10T00:00:02.999808","MEAN_MOTION":15.82599286,"ECCENTRICITY":0.00011323,"INCLINATION":97.6018,"RA_OF_ASC_NODE":259.1547,"ARG_OF_PERICENTER":279.8477,"MEAN_ANOMALY":6.0284,"EPHEMERIS_TYPE":0,"CLASSIFICATION_TYPE":"U","NORAD_CAT_ID":53044,"ELEMENT_SET_NO":999,"REV_AT_EPOCH":598,"BSTAR":0.0011162879,"MEAN_MOTION_DOT":0.00238434,"MEAN_MOTION_DDOT":0},{"OBJECT_NAME":"STARLINK-36722","OBJECT_ID":"2026-036P","EPOCH":"2026-03-09T21:23:46.946976","MEAN_MOTION":15.82143049,"ECCENTRICITY":0.000234,"INCLINATION":42.9986,"RA_OF_ASC_NODE":248.4325,"ARG_OF_PERICENTER":294.6585,"MEAN_ANOMALY":65.4043,"EPHEMERIS_TYPE":0,"CLASSIFICATION_TYPE":"U","NORAD_CAT_ID":67917,"ELEMENT_SET_NO":999,"REV_AT_EPOCH":370,"BSTAR":0.0017443897,"MEAN_MOTION_DOT":0.00385912,"MEAN_MOTION_DDOT":0}]
